COMMUNITY_AREA_NAMES,ADDRESS,ZIP_CODES,LATITUDE,LONGITUDE
'Englewood','301 W. Marquette Road',60621,41.77256377,-87.63241932
"'Washington Park',",'5556 S. Michigan Ave.',60637,41.79297452,-87.62256852
"'Humboldt Park',",'526 N. Troy St.',60624,41.89117274,-87.70533834
"'Grand Boulevard',",'727 E. 50th Pl',60615,41.80303973,-87.60775489
"'Uptown',",'4878 N. Magnolia Ave.',60640,41.97121983,-87.66124806
"'South Shore',",'7020 S. Jeffrey Blvd.',60649,41.76735295,-87.57647796
"'Near West Side',",'216 S. Hoyne Ave.',60612,41.87812559,-87.67915413
"'Albany Park',",'4444 W. Lawrence Ave.',60630,41.96822423,-87.73974749
"'Grand Boulevard',",'4448 S. State St.',60609,41.81319493,-87.6263368
"'Logan Square',",'1955 N. St. Louis Ave.',60647,41.91725524,-87.71338923
"'Humboldt Park',",'3541 W. North Ave.',60647,41.90989234,-87.71605298
"'Near North Side',",'1512 N. LaSalle St.',60610,41.90959014,-87.63324548
"'North Lawndale',",'1256-60 S. Washtenaw Ave.',60608,41.86484279,-87.69350892
"'Pullman',",'901 E. 104th St.',60628,41.70556659,-87.60107403
"'Auburn Gresham',",'1222 W. 79th St.',60620,41.75059341,-87.65472675
"'Humboldt Park',",'649 N. Sawyer Ave.',60624,41.89338882,-87.70756503
"'New City',",'4600 S. Wood St.',60609,41.81028546,-87.67002227
"'West Lawn',",'6800 S. Keating Ave.',60629,41.76947523,-87.74048606
"'North Lawndale',",'1303-15 S. Fairfield Ave.',60608,41.86448798,-87.69443508
"'Lower West Side',",'2012 W. 17th St.',60608,41.8586567,-87.67659689
"'Austin',",'557 N. Pine Ave.',60644,41.8905194,-87.76324864
"'West Ridge',",'6057 N. Lincoln Ave.',60659,41.99186565,-87.70954508
"'West Ridge',",'6142 N. California Ave.',60659,41.99344157,-87.69964542
"'East Garfield Park',",'908 S. Central Park Ave.',60624,41.86966928,-87.71567245
"'Humboldt Park',",'3145 W. Franklin Blvd.',60624,41.88996815,-87.7057294
"'Uptown',",'4130 N. Kenmore Ave.',60640,41.95758244,-87.65636944
"'Kenwood',",'837 E. 47th St.',60653,41.80944088,-87.60503342
"'Logan Square',",'2733 W. Belden Ave.',60647,41.92282434,-87.69674313
"'West Town',",'1100 N. Ashland Ave.',60622,41.901559,-87.66759184
"'Douglas',",'3506 S. State St.',60609,41.83078218,-87.62679018
"'Woodlawn',",'6400 S. Maryland Ave.',60637,41.77861094,-87.60479472
"'Belmont Cragin',",'2917-39 N. Central Ave.',60634,41.93364805,-87.7661803
"'Oakland',",'3750 S. Cottage Grove Ave.',60653,41.82637057,-87.60828676
"'Oakland',",'1125 E. Bowen Ave.',60653,41.81871188,-87.59894571
"'Roseland',",'63 E. 104th St.',60628,41.70526978,-87.62098184
"'Douglas',",'3845 S. State St.',60609,41.82420114,-87.62627123
"'Belmont Cragin',",'6045 W. Grand Ave.',60639,41.92079101,-87.77747755
"'North Lawndale',",'10 N. Hamlin Ave.',60613,41.88109233,-87.72091009
"'West Town',",'1154 N. Campbell St.',60622,41.90287808,-87.68963252
"'East Garfield Park',",'3333 W. Maypole Ave.',60624,41.88346519,-87.71003991
"'Austin',",'126 S. Central Ave.',60644,41.87849467,-87.76494803
"'West Englewood',",'1656 W. 63rd St.',60636,41.77953039,-87.66652651
"'Humboldt Park',",'642 N. Kedzie Ave.',60612,41.89317664,-87.70663122
"'Humboldt Park',",'541 N. Homan Ave.',60624,41.89148035,-87.71116895
"'Uptown',",'850 W. Eastwood Ave.',60640,41.96652845,-87.65171856
"'Washington Park',",'5441 S. Michigan Ave.',60615,41.7952753,-87.62233438
"'Lower West Side',",'2014 S. Racine Ave.',60608,41.85469028,-87.65647821
"'Lakeview',",'734 W. Sheridan Rd.',60613,41.95286969,-87.64934018
"'Loop',",'188 W. Randolph St.',60601,41.88457966,-87.63375683
"'Austin',",'5327 W. Chicago Ave.',60651,41.89479143,-87.75927048
"'Woodlawn',",'6146 S. Kenwood Ave.',60637,41.78280346,-87.59326131
"'Douglas',",'3700 S. Dearborn St.',60609,41.82719422,-87.62784358
"'Grand Boulevard',",'436 E. 47th St.',60653,41.80952057,-87.61482402
"'North Park',",'5801 N. Pulaski Road',60646,41.98593151,-87.72836921
"'Woodlawn',",'6522 S. Ingleside Ave.',60637,41.77610371,-87.60232857
"'South Deering',",'2260 E. 99th St.',60617,41.71539824,-87.56871495
"'Kenwood',",'4657 S. Drexel Blvd',60653,41.80971394,-87.60375337
"'Near West Side',",'110 N. Wood St.',60612,41.88355426,-87.67195337
"'Oakland',",'1061 E. 41st Place',60653,41.81978129,-87.59992527
"'East Garfield Park',",'3607 W. Polk St.',60624,41.87072555,-87.71590797
"'Roseland',",'10513 S. Michigan Ave.',60628,41.70307738,-87.62054468
"'Garfield Ridge',",'5839 S. Harlem Ave.',60638,41.78535412,-87.801098
"'North Lawndale',",'1129 S. Sacramento Ave.',60612,41.86736961,-87.70066623
"'Bridgeport',",'2825 S. Halsted St.',60608,41.84272915,-87.64624727
"'Near North Side',",'1200 N. Clybourn Ave.',60622,41.90378958,-87.63982077
"'Lincoln Square',",'4618 N. Western Ave.',60625,41.96549759,-87.68895433
"'South Chicago',",'3251 E. 92nd St.',60617,41.72821355,-87.54469279
"'West Garfield Park',",'2822 W. Jackson Blvd.',60612,41.87753589,-87.69706305
"'Near North Side',",'1311 N. Halsted St.',60642,41.90543825,-87.64798274
"'North Lawndale',",'1859 S. Pulaski Ave.',60623,41.85533972,-87.72471008
"'Grand Boulevard',",'4642 S. Michigan Ave.',60653,41.80982565,-87.62299938
"'Near West Side',",'727 W. Lake St.',60661,41.8855647,-87.64685508
"'Humboldt Park',",'601 N. Drake Ave',60624,41.89190162,-87.71483993
"'Uptown',",'4801 N. Ravenswood Ave.',60640,41.9689735,-87.67403032
"'Grand Boulevard',",'400 E. 41st St.',60653,41.8203495,-87.61651411
"'Hyde Park',",'5432 S. Woodlawn Ave.',60615,41.79696316,-87.59673531
"'West Town',",'1611 W. Division St.',60622,41.9032305,-87.66797825
"'North Lawndale',",'2652 W. 12th Pl',60608,41.8657664,-87.69316184
"'East Garfield Park',",'705-23 S. Independence Ave.',60624,41.87244138,-87.71958599
"'Near South Side',",'1801 S. Wabash St.',60616,41.85779292,-87.62546237
"'Oakland',",'1106 E. 42nd Pl',60653,41.81813912,-87.59936268
"'Humboldt Park',",'3500 W. Ohio St.',60624,41.89192949,-87.71382831
"'Grand Boulevard',",'116 E. 43rd St.',60653,41.81666257,-87.62226472
"'Humboldt Park',",'614 N. Spaulding Ave.',60624,41.89237005,-87.70904868
"'Woodlawn',",'6446 S. Kenwood Ave.',60637,41.77748903,-87.59314971
"'Humboldt Park',",'3541 W. North Ave.',60647,41.90989234,-87.71605298
"'Albany Park',",'2800 W. Montrose Ave.',60618,41.96135865,-87.69854417
"'North Lawndale',",'4339-47 W. 18th Pl',60623,41.85577153,-87.7338879
"'Rogers Park',",'6928 N. Wayne Ave.',60626,42.00757377,-87.66517114
"'Englewood',",'6002 S. Halsted St.',60621,41.78499449,-87.64506314
"'Montclare',",'2931-57 N. Harlem Ave.',60707,41.93350027,-87.80644193
"'Oakland',",'1140 E. 42nd Pl',60653,41.81813504,-87.59809656
"'Near West Side',",'1355 S. Blue Island Ave.',60608,41.8639941,-87.65575239
"'Auburn Gresham',",'1050 W. 79th St.',60620,41.75064862,-87.65092232
"'North Center',",'2324 W. Irving Park Road',60618,41.95414467,-87.68697505
"'East Garfield Park',",'3300 W. Maypole Ave.',60624,41.88369802,-87.7089025
"'West Pullman',",'12045 S. Emerald Ave.',60628,41.67469008,-87.64051484
"'Humboldt Park',",'3220 W. Division St.',60651,41.90293349,-87.70762292
"'North Lawndale',",'1313-15 S. Fairfiled Ave.',60608,41.86422845,-87.69442766
"'Grand Boulevard',",'5000 S. Indiana Ave.',60615,41.80375452,-87.62121706
"'Lower West Side',",'2124 W. 19th St.',60608,41.85590751,-87.67943292
"'West Pullman',",'11701 S. State St.',60628,41.6815901,-87.62262763
"'Near South Side',",'1400 S. Indiana Ave.',60605,41.86402666,-87.62262043
"'Washington Park',",'6151 S. Michigan Ave.',60637,41.782332,-87.62198764
"'Grand Boulevard',",'4427-33 S. Indiana Ave.',60653,41.813971,-87.62119166
"'Uptown',",'5012 N. Winthrop Ave.',60640,41.97370056,-87.65789194
"'Oakland',",'1128 E. Bowen Ave.',60653,41.81894603,-87.59897812
"'North Lawndale',",'4041 W. Roosevelt Road',60624,41.86604003,-87.72672414
"'Belmont Cragin',",'4800 W. George St.',60641,41.93346293,-87.74679225
"'Douglas',",'17 W. 36th St.',60609,41.82906211,-87.62716568
"'West Town',",'1600 N. Talman Ave.',60647,41.91034383,-87.69347132
"'Oakland',",'4143 S. Lake Park Ave.',60653,41.81881289,-87.59996595
"'Englewood',",'624 W. 61st St.',60621,41.78355891,-87.6410929
"'Woodlawn',",'6321 S. Cottage Grove Ave.',60637,41.7797573,-87.60576963
"'Lower West Side',",'1714 W. 19th St.',60608,41.85603287,-87.66936057
"'North Lawndale',",'1262-1300 S. Washtenaw Ave.',60608,41.86468333,-87.69350477
"'Avalon Park',",'1200 E. 78th St.',60619,41.75332086,-87.5954564
"'Humboldt Park',",'528 N. Troy St.',60624,41.89123228,-87.70534012
"'Chicago Lawn',",'3214 W. 63rd Pl',60629,41.77814486,-87.70387541
"'Grand Boulevard',",'460 E. 41st St.',60653,41.82038154,-87.61438244
"'Near West Side',",'1939 W. Lake St.',60612,41.8849038,-87.67585077
"'North Lawndale',",'3836 W. Cermak Road',60623,41.85170274,-87.72132688
"'Lower West Side',",'967 W. 19th St.',60608,41.85656724,-87.65074652
"'Washington Park',",'5701 S. Michigan Ave.',60653,41.79098039,-87.62222411
"'Edgewater',",'5650 N. Kenmore Ave.',60660,41.98518678,-87.65680868
"'Grand Boulevard',",'731 E. 50th Pl',60615,41.80304222,-87.60758851
"'South Shore',",'7018 S. Cregier Ave.',60649,41.76738208,-87.58140538
"'South Chicago',",'3200 E. 92nd St.',60617,41.72840878,-87.54682246
"'North Park',",'5801 N. Pulaski Road',60646,41.98593151,-87.72836921
"'Near South Side',",'2031 S. Clark St.',60616,41.8544114,-87.62999188
"'Roseland',",'240 W. 107th Place',60628,41.69899564,-87.62954345
"'Lakeview',",'3600 N. Halsted St.',60613,41.94740174,-87.64963658
"'West Town',",'710 W. Grand Ave.',60654,41.89131063,-87.64632446
"'Auburn Gresham',",'8132-44 S. Racine Ave.',60620,41.74586011,-87.65376017
"'West Town',",'1527-31 N. Wicker Park Ave.',60622,41.90876874,-87.67689152
"'East Garfield Park',",'15 S. Homan Ave.',60624,41.88041381,-87.71084273
"'Logan Square',",'3503 W. Armitage Ave',60647,41.91720928,-87.71368201
"'Humboldt Park',",'3118 W. Franklin Blvd.',60624,41.89019948,-87.70473978
"'Woodlawn',",'1410 E. 62nd St.',60637,41.78250522,-87.59096164
"'Hegewisch',",'13550 S. Avenue O',60633,41.64845741,-87.54012317
"'South Lawndale',",'3515-17 W. 23rd St.',60623,41.84975688,-87.71320473
"'North Lawndale',",'1331 S. Independence Blvd.',60623,41.86341092,-87.71929168
"'Humboldt Park',",'532 N. Trumbull Ave.',60624,41.89123533,-87.71267502
"'Near South Side',",'30 W. Cermak Road',60616,41.85301339,-87.62823221
"'Uptown',",'847-49 W. Sunnyside Ave.',60640,41.9635354,-87.65179619
"'Gage Park',",'3244 W. 59th St.',60629,41.78632805,-87.70513618
"'Lower West Side',",'2021 S. Morgan St.',60608,41.85461476,-87.65132209
"'Near North Side',",'1333 N. Kingsbury St.',60622,41.905731,-87.64964597
"'Grand Boulevard',",'4950 S. Langley Ave.',60615,41.80435535,-87.60902296
"'West Town',",'1723-33 N. Humboldt Blvd.',60647,41.91280865,-87.70180006
"'Logan Square',",'2501 W. Armitage Ave.',60647,41.91744385,-87.68988362
"'Austin',",'334 N. Menard Ave.',60644,41.88672742,-87.77013329
"'Humboldt Park',",'3543 W. Chicago Ave.',60651,41.89535898,-87.71557516
"'Douglas',",'3640 S. State St.',60609,41.82792531,-87.62663572
"'Washington Park',",'346 E. 53rd St.',60615,41.79854996,-87.61745669
"'Humboldt Park',",'3224 W. Ohio St.',60624,41.89199316,-87.70760707
"'Englewood',",'5628-30 S. Halsted St.',60621,41.79162782,-87.64523321
"'Humboldt Park',",'3939-59 W. North Ave.',60647,41.90978701,-87.72558192
"'Uptown',",'4946 N. Sheridan Road',60640,41.97294612,-87.65506712
"'Near West Side',",'1519 W. Warren Blvd.',60607,41.88227183,-87.66598098
"'Grand Boulevard',",'4340-2 S. Champlain St.',60653,41.81660195,-87.61055648
"'New City',",'4845 S. Western Blvd.',60609,41.80531018,-87.68362994
"'Albany Park',",'4814-58 N. Kedzie Ave.',60625,41.96893506,-87.70863783
"'North Lawndale',",'1254-56 S. Fairfiled Ave.',60608,41.86488549,-87.69474071
"'Washington Park',",'6253 S. Michigan Ave.',60653,41.78040369,-87.62183749
"'Rogers Park',",'6808 N. Wayne Ave.',60626,42.00577097,-87.66511109
"'West Town',",'1045 N. Sacramento Blvd.',60622,41.90048723,-87.70160663
"'Oakland',",'1110 E. Bowen Ave.',60653,41.81874892,-87.59960335
"'Woodlawn',",'6230 S. Dorchester Ave.',60637,41.78143113,-87.59152085
"'Woodlawn',",'6134 S. Cottage Grove Ave.',60637,41.78300119,-87.60613195
"'Logan Square',",'2451-57 N. Sacramento Ave.',60612,41.92627863,-87.70220924
"'Chatham',",'8300 S. Cottage Grove Ave.',60619,41.74387382,-87.60517616
"'Chicago Lawn',",'7430 S. Rockwell St.',60629,41.75815411,-87.68810611
"'Hyde Park',",'1330 E. 53rd St.',60615,41.79959787,-87.59376104
"'North Lawndale',",'1910 S. Albany Ave.',60623,41.8551334,-87.7030674
"'Douglas',",'15 W. 37th St.',60609,41.82720892,-87.62722672
"'North Lawndale',",'1218-20 S. Washtenaw Ave.',60608,41.8658847,-87.69353817
"'Edgewater',",'5700 N. Sheridan Road',60660,41.9856411,-87.65538854
"'Oakland',",'4131 S. Lake Park Ave.',60653,41.81914922,-87.60016504
"'Austin',",'504 S. Laramie Ave.',60644,41.87376512,-87.7549712
"'Hyde Park',",'5105 S. Harper Ave.',60615,41.80226057,-87.58900435
"'West Elsdon',",'3630 W. 51st St.',60632,41.80078286,-87.71473662
"'Logan Square',",'1955 N. Richmond St.',60647,41.91725621,-87.70031066
"'Woodlawn',",'6129 S. Cottage Grove Ave.',60637,41.78317579,-87.60584352
"'Lower West Side',",'963 W Cullerton St.',60608,41.8551748,-87.65062753
"'West Town',",'1038-40 N. Ashland Ave.',60622,41.90089079,-87.66757227
"'Avondale',",'3060 N. Milwaukee Ave.',60618,41.93666739,-87.72009772
"'Douglas',",'10 W. 37th St.',60609,41.82744587,-87.62694964
"'North Park',",'5801 N. Pulaski Road',60646,41.98593151,-87.72836921
"'Oakland',",'1060 E. 41st St.',60653,41.82035789,-87.60043601
"'East Garfield Park',",'2822 W. Jackson Blvd.',60612,41.87753589,-87.69706305
"'Humboldt Park',",'3248 W. Division St.',60651,41.90292371,-87.7086161
"'North Lawndale',",'2642-44 W. 12 th Pl',60608,41.86577114,-87.69274143
"'Montclare',",'6650 W. Belden Ave.',60707,41.92130822,-87.79209096
"'North Lawndale',",'1251 S. Sawyer Ave.',60623,41.86482901,-87.70669366
"'Belmont Cragin',",'5038 W. Armitage Ave.',60639,41.91696054,-87.75247249
"'Woodlawn',",'6200 S. University Ave.',60637,41.782231,-87.59801573
"'Englewood',",'500 W. Englewood Ave.',60621,41.78090936,-87.63761782
"'West Town',",'2654 W. North Ave.',60647,41.91035449,-87.69432564
"'Austin',",'1816 N. St. Louis Ave.',60647,41.91421838,-87.71358429
"'West Pullman',",'825 W. 118th St.',60643,41.67950676,-87.6430113
"'East Garfield Park',",'2800 W. Fulton St.',60612,41.88664623,-87.69655814
"'Rogers Park',",'7450 N. Rogers Ave.',60626,42.01714971,-87.67317857
"'Douglas',",'340 E. 38th St.',60653,41.82575322,-87.61751743
"'Uptown',",'900 W. Windsor Ave.',60640,41.9645923,-87.65250544
"'Near West Side',",'2425 W. Adams St.',60612,41.8784239,-87.68736835
"'Uptown',",'811 W. Agatite Ave.',60640,41.96263002,-87.65043043
"'Grand Boulevard',",'4500 S. Wabash Ave.',60653,41.81297966,-87.62470713
"'Lakeview',",'927 W. Irving Park Rd.',60613,41.95439818,-87.65321906
"'West Town',",'1623 N. Talman Ave.',60647,41.91097205,-87.69319452
"'Logan Square',",'2201-31 N. Milwaukee Ave.',60647,41.92090376,-87.6938545
"'Humboldt Park',",'1750 N. Spaulding Ave.',60647,41.91332565,-87.71031714
"'North Lawndale',",'1302-06 S. Washtenaw Ave.',60608,41.86452207,-87.69350059
"'Woodlawn',",'817 E. 64th St.',60637,41.77849343,-87.60507242
"'Grand Boulevard',",'4257 S. King Dr.',60653,41.81674964,-87.61664895
"'West Garfield Park',",'3916 W. Washington Blvd.',60624,41.88196929,-87.72399261
"'Near West Side',",'1222 W. Roosevelt Road',60607,41.86709035,-87.65767338
"'Washington Park',",'5751-59 S. Michigan Ave.',60637,41.78956141,-87.62218963
"'Fuller Park',",'5041 S. Princeton Ave.',60609,41.80241312,-87.63305258
"'Auburn Gresham',",'8019-55 S. Halsted St.',60620,41.74822238,-87.6438257
"'New City',",'850 W. Garfield Blvd.',60609,41.7943937,-87.64724467
"'Roseland',",'10450 S. Michigan Ave.',60628,41.70389075,-87.62077116
"'Douglas',",'3604 S. State St.',60609,41.82901759,-87.62666295
"'Grand Boulevard',",'611 E. 50th St.',60615,41.80389906,-87.6108319
"'Oakland',",'1137 E. Bowen Ave.',60653,41.81886863,-87.59851524
"'North Lawndale',",'1317-19 S. Fairfield Ave.',60608,41.86412462,-87.69442467
"'West Ridge',",'6411 N. Rockwell Ave.',60645,41.99802217,-87.69463113
"'Uptown',",'4040 N. Sheridan Road',60613,41.95568502,-87.65472513
"'Washington Park',",'6100-24 S. Prairie Ave.',60637,41.78373056,-87.61908972
"'Grand Boulevard',",'722-46 E. Bowen Ave.',60653,41.81957647,-87.60848349
"'South Chicago',",'9200 S. Burley Ave.',60617,41.72821986,-87.54575578
"'Humboldt Park',",'3114 W. Franklin Blvd.',60624,41.8902013,-87.70458681
"'Near North Side',",'625 W. Division St.',60622,41.90358744,-87.64433208
"'Grand Boulevard',",'4333 S. Michigan Ave.',60653,41.8155504,-87.62285652
"'Edgewater',",'1062 W. Bryn Mawr Ave.',60660,41.9837729,-87.65770384
"'North Lawndale',",'3440 W. Roosevelt Road',60624,41.86643977,-87.71218086
"'Lakeview',",'3208 N. Shefield Ave.',60657,41.94022814,-87.65426349
"'Lower West Side',",'1646-50 S. Throop St.',60608,41.8583373,-87.65903377
"'Greater Grand Crossing',",'1450 E. 70th St.',60619,41.76795883,-87.58910953
"'South Shore',",'2804 E. 77th Place',60649,41.7546866,-87.55496472
"'Humboldt Park',",'3554 W. Ohio St.',60624,41.89190751,-87.71596466
"'West Town',",'1664 W. Division St.',60622,41.90341508,-87.66997144
"'North Lawndale',",'1224 S. Washtenaw Ave.',60608,41.86568173,-87.69353304
"'Near South Side',",'30 W. Cermak Road',60616,41.85301339,-87.62823221
"'West Town',",'2656 W. North Ave.',60647,41.91035372,-87.69440401
"'Portage Park',",'4015-23 N. Narragansett Ave.',60634,41.95344562,-87.78643375
"'Humboldt Park',",'607 N. Sawyer Ave.',60624,41.89215341,-87.70752657
"'Oakland',",'1113 E. Bowen Ave.',60653,41.81857981,-87.59938372
"'Near South Side',",'300 E. 26th Street',60616,41.8457959,-87.62040337
"'Ashburn',",'2815 W. 79th St.',60652,41.74972646,-87.69327334
"'North Lawndale',",'1260 S. Fairfield Ave.',60608,41.86472904,-87.69473582
"'Grand Boulevard',",'4752 S. Wabash Ave.',60614,41.80769903,-87.62455959
"'Logan Square',",'2517 W. Fullerton Ave.',60647,41.9247621,-87.69066098
"'Chicago Lawn',",'2626 W. 63rd St.',60629,41.77928099,-87.68967949
"'North Lawndale',",'1859 S. Pulaski Road',60623,41.85533972,-87.72471008
"'Near North Side',",'545 W. Division St.',60610,41.90360901,-87.6430754
"'Humboldt Park',",'1745 N. Keystone Ave.',60639,41.91299036,-87.72750391
"'Uptown',",'5040 N. Kenmore Ave.',60640,41.97449607,-87.65651102
"'Humboldt Park',",'526 N. St. Louis Ave.',60624,41.8909481,-87.71388693
"'Washington Heights',",'8915 S. Loomis St.',60620,41.73164453,-87.65793186
"'Lower West Side',",'1712 W. 17th St.',60608,41.85876878,-87.66938208
"'Douglas',",'3800 S. King Dr.',60653,41.825556,-87.61717842
"'Edgewater',",'6214 N. Winthrop Ave.',60660,41.99501546,-87.65851604
"'Oakland',",'4130 S. Oakenwald Ave.',60653,41.81938039,-87.59887932
"'Austin',",'4623 W. Gladys Ave.',60644,41.87586178,-87.74131396
"'North Lawndale',",'1220 S. Talman Ave.',60608,41.86584389,-87.69231965
"'Irving Park',",'4054 N. Kedzie Ave.',60618,41.95553133,-87.70820786
"'Woodlawn',",'6450 S. Stony Island Ave.',60637,41.77728699,-87.58649335
"'Grand Boulevard',",'747 E. 47th St.',60653,41.80941355,-87.60708556
"'South Lawndale',",'2243 S. Central Park Ave.',60623,41.85039133,-87.7148139
"'North Lawndale',",'3128 W. Douglas Blvd.',60623,41.86308761,-87.70428319
"'Riverdale',",'13037 S. Daniel Dr.',60627,41.65793125,-87.6159174
"'Douglas',",'3138-40 S. Indiana Ave.',60616,41.83717695,-87.62203977
"'Lower West Side',",'1313 W. 19th St.',60608,41.85597939,-87.65939108
"'Logan Square',",'2328-48 N. California Ave.',60647,41.92365685,-87.69753123
"'South Shore',",'7538 S. Kingston Ave.',60649,41.75787127,-87.56285983
"'Austin',",'5565-71 W. Quincy Ave.',60644,41.8773375,-87.76423685
"'Washington Park',",'6143-51 S. Indiana Ave.',60637,41.78254707,-87.62038523
"'Humboldt Park',",'3053 W. Franklin Blvd.',60612,41.88999235,-87.70368677
"'Uptown',",'4727 N. Malden St.',60640,41.96799271,-87.66263241
"'Washington Park',",'5947 S. Indiana Ave.',60653,41.78604936,-87.62047574
"'Chatham',",'8200 S. Ellis Ave.',60619,41.74575696,-87.60031991
"'Uptown',",'4431 N. Clifton Ave.',60640,41.96265369,-87.65819285
"'Lakeview',",'1501 W. Melrose St.',60657,41.94053116,-87.66638261
"'Austin',",'335 N. Menard Ave.',60644,41.88673275,-87.76983958
"'Englewood',",'901 W. 63rd Street',60621,41.77959999,-87.64726896
"'Logan Square',",'2404-14 W. Cortland St.',60647,41.91586948,-87.68763427
"'West Ridge',",'5822 N. Western Ave.',60659,41.98752226,-87.68971871
"'Rogers Park',",'6928 N. Wayne Ave.',60626,42.00757377,-87.66517114
"'Douglas',",'3633 S. State St.',60609,41.82865019,-87.62635888
"'North Center',",'1911-21 W. Irving Park Rd.',60613,41.95407205,-87.67682369
"'Near West Side',",'1401 W. Roosevelt Road',60608,41.86680605,-87.66169184
"'Grand Boulevard',",'633 E. 50th St.',60615,41.8039101,-87.61014176
"'Washington Park',",'325-43 E. 55th Place',60637,41.79376972,-87.61813849
"'Grand Boulevard',",'4034 S. State St.',60609,41.82091083,-87.62652565
"'Lower West Side',",'1414-48 W. 21st St.',60608,41.85434832,-87.66187526
"'Near North Side',",'300 W. Hill St.',60610,41.90219524,-87.63592092
"'Grand Boulevard',",'701-27 E. 43rd St.',60653,41.81666609,-87.60905996
"'Washington Park',",'215 E. 61st St.',60637,41.78370163,-87.61994272
"'Roseland',",'10400-30 S. Michigan Ave.',60628,41.70534195,-87.62064503
"'Douglas',",'3612 S. State St.',60609,41.82873626,-87.62665512
"'Oakland',",'3859 S. Vincennes Ave.',60653,41.8239192,-87.61246844
"'Belmont Cragin',",'2715 N. Cicero Ave.',60639,41.93012657,-87.74638854
"'North Lawndale',",'1550 S. Hamlin Ave.',60623,41.85923592,-87.7202403
"'Lakeview',",'3228 N. Clark St.',60657,41.94064621,-87.65140951
"'West Town',",'2753 W. Division St.',60622,41.90281875,-87.69652556
"'East Garfield Park',",'750 S. Homan Ave.',60624,41.87119717,-87.71084842
"'Humboldt Park',",'3507 W. North Ave.',60647,41.9099065,-87.71469504
"'West Town',",'1241 N. Milwaukee Ave.',60622,41.904342,-87.66779176
"'Logan Square',",'3734 W. Cortland St.',60647,41.91552353,-87.72061073
"'Humboldt Park',",'3108 W. Franklin Blvd.',60624,41.89020402,-87.70435734
"'Woodlawn',",'848-58 E. 65th St.',60637,41.77690925,-87.60395378
"'Auburn Gresham',",'1626 W. 87th St.',60620,41.73588515,-87.66414272
"'Englewood',",'6415 S. Sangamon St.',60621,41.77739333,-87.6482214
"'Oakland',",'3755 S. Cottage Grove Ave.',60653,41.82631731,-87.60794545
"'Humboldt Park',",'3215 W. Huron St.',60624,41.89360833,-87.70720187
"'East Garfield Park',",'3609 W. Arthington St.',60624,41.86982456,-87.71590385
"'West Garfield Park',",'6 N. Hamlin Blvd.',60624,41.88096762,-87.72090693
"'Near West Side',",'50 N. Hoyne Ave.',60612,41.8828067,-87.67926811
"'New City',",'4707 S. Marshfield Ave.',60609,41.80836402,-87.66603344
"'Montclare',",'2601-19 N. Harlem Ave.',60707,41.92716483,-87.80621904
"'North Lawndale',",'1345 S. Fairfield Ave.',60608,41.86339815,-87.69440189
"'West Ridge',",'1818 W. Peterson Ave.',60660,41.99084916,-87.67599309
"'Uptown',",'5009 N. Sheridan Road',60640,41.97361773,-87.65478924
"'Grand Boulevard',",'4420-24 S. Michigan Ave.',60653,41.81406086,-87.62311222
"'Near North Side',",'459 W. Division St.',60622,41.90364882,-87.64046322
"'Norwood Park',",'5700 N. Harlem Ave.',60631,41.98466628,-87.80707301
"'Jefferson Park',",'5400 N. Northwest Hwy.',60630,41.97839039,-87.77439957
"'Oakland',",'1120 E. Bowen Ave.',60653,41.81886099,-87.59923619
"'Roseland',",'11045 S. Wentworth Ave.',60628,41.69301591,-87.62776735
"'Chicago Lawn',",'2626 W. 63rd St.',60629,41.77928099,-87.68967949
"'Logan Square',",'3230 W. Armitage Ave',60647,41.91749465,-87.70826581
"'Hyde Park',",'5330 S. Harper Ave.',60615,41.79857178,-87.58921454
"'Brighton Park',",'3246 W. 47th St.',60632,41.80820589,-87.70586474
"'Dunning',",'4239 N. Oak Park Ave.',60634,41.95769221,-87.79754403
"'West Town',",'945 N. Western Ave.',60622,41.89889515,-87.68677643
"'Lower West Side',",'2014 S. Racine Ave.',60608,41.85469028,-87.65647821
"'Austin',",'4650 W. Van Buren St.',60644,41.87516676,-87.74216784
"'Woodlawn',",'6227-29 S. Cottage Grove Ave.',60637,41.781408,-87.60580712
"'North Lawndale',",'1310-14 S. Washtenaw Ave.',60608,41.86433604,-87.69349569
"'West Englewood',",'2115 W. 63rd St',60636,41.77916282,-87.6770312
"'Portage Park',",'4655 W. Burteau Ave.',60641,41.95639632,-87.74523589
"'Near North Side',",'544 W. Oak St.',60610,41.90052524,-87.64295528
"'South Lawndale',",'2700 S. Drake Ave.',60623,41.84247656,-87.71366715
"'Greater Grand Crossing',",'6956 S. Vincennes Ave.',60621,41.76751603,-87.62717205
"'Near West Side',",'320 S. Maplewood Ave.',60612,41.87698195,-87.69022214
"'Auburn Gresham',",'8440 S. Parnell Ave.',60620,41.74018636,-87.63781991
"'Oakland',",'4116 S. Oakenwald Ave.',60653,41.8195725,-87.59929085
"'Humboldt Park',",'3341 W. Ohio St.',60624,41.89174085,-87.71055924
"'Humboldt Park',",'505 N. Troy St.',60612,41.89052242,-87.70502546
"'Uptown',",'1032 W. Montrose Ave',60613,41.96186585,-87.65610743
"'North Lawndale',",'1255 S. Fairfield Ave.',60608,41.86489079,-87.69444711
"'Washington Park',",'5801 S. Michigan Ave.',60637,41.78915201,-87.62217908
"'Garfield Ridge',",'5011 W. 47th St.',60638,41.80744124,-87.74856678
"'Lower West Side',",'2015 S. Morgan St.',60608,41.85480194,-87.65132697
"'West Town',",'1838 W. Chicago Ave.',60622,41.89607519,-87.67373584
"'Grand Boulevard',",'400 E. 41st St.',60653,41.8203495,-87.61651411
"'North Lawndale',",'2639 W. 12th Pl',60608,41.86555368,-87.69250717
"'Woodlawn',",'6600 S. Greenwood Ave.',60637,41.77493196,-87.59987091
"'South Shore',",'2355 E. 67th St.',60649,41.77343579,-87.56778382
"'Woodlawn',",'803 E. 61st St.',60637,41.783951,-87.60584338
"'Humboldt Park',",'3525 W. Ohio St.',60624,41.89169871,-87.71492195
"'Douglas',",'2600 S. King Dr.',60616,41.84565291,-87.61781639
"'Austin',",'223-9 S. Central Ave.',60644,41.87759814,-87.76461864
"'Lincoln Square',",'1801-15 W. Argyle St.',60640,41.97235677,-87.67492225
"'Lower West Side',",'1427 W. Cullerton St.',60608,41.8550271,-87.66233036
"'Englewood',",'6565 S. Yale Ave.',60621,41.77466762,-87.6315302
"'East Garfiled Park',",'3512-46 W. Fifth Ave.',60624,41.87638462,-87.71361194
"'North Lawndale',",'2707 W. 12th St.',60808,41.86642326,-87.69375381
"'Washington Park',",'300-10 E. 61st St.',60637,41.78393828,-87.61886624
"'Grand Boulevard',",'223 E. 41st St.',60653,41.82007455,-87.6204233
"'Humboldt Park',",'1152 N. Christiana Ave.',60647,41.9025858,-87.71076053
"'North Lawndale',",'1129 S. Sacramento Ave.',60612,41.86736961,-87.70066623
"'Near West Side',",'2237 W. Maypole Ave.',60612,41.88380799,-87.68281702
"'South Chicago',",'8425 S. Saginaw Ave.',60617,41.74195912,-87.5598599
"'Uptown',",'927 W. Wilson Ave.',60640,41.96533937,-87.65347906
"'Humboldt Park',",'521 N. St. Louis Ave.',60624,41.89090793,-87.71359179
"'Washington Heights',",'848 W. 103rd St.',60643,41.70700943,-87.64478166
"'Grand Boulevard',",'401 E. Bowen Ave.',60653,41.81922851,-87.61645178
"'Pullman',",'15 E. 112th Place',60628,41.68976374,-87.62239508
"'Near North Side',",'1151 N. Cleveland Ave.',60622,41.90298972,-87.64104289
"'Near South Side',",'2030 S. State St.',60616,41.85453503,-87.62726774
"'Washington Park',",'110 E. 60th St.',60637,41.78570095,-87.6217485
"'Near West Side',",'1314 W. 15th St.',60608,41.86166987,-87.65963108
"'Grand Boulevard',",'636 E. 50th St.',60615,41.80413302,-87.60993412
"'West Town',",1456 N. Rockwell Ave.,60622,41.905458,-87.69216188
"'Montclare',",6614 W. Diversey Ave.,60707,41.93104976,-87.79077219
"'West Town',",1451 N. Washtenaw Ave.,60622,41.90708504,-87.69461792
